OBJECT_NAME,OBJECT_ID,EPOCH,MEAN_MOTION,ECCENTRICITY,INCLINATION,RA_OF_ASC_NODE,ARG_OF_PERICENTER,MEAN_ANOMALY,EPHEMERIS_TYPE,CLASSIFICATION_TYPE,NORAD_CAT_ID,ELEMENT_SET_NO,REV_AT_EPOCH,BSTAR,MEAN_MOTION_DOT,MEAN_MOTION_DDOT
SAUDISAT 1C (SO-50),2002-058C,2026-07-02T07:51:29.048256,14.83078536,.00748913,64.5520,82.1417,259.6484,99.6174,0,U,27607,999,26670,.14034649E-3,.1045E-4,0
SAUDISAT 2,2004-025F,2026-07-02T06:40:14.010816,14.56692512,.00235035,98.5511,183.6500,249.4990,110.3685,0,U,28371,999,16794,.76075703E-4,.291E-5,0
SAUDISAT 3,2007-012B,2026-07-02T15:03:05.786784,14.71434502,.00147112,98.1462,134.0384,173.1502,186.9908,0,U,31118,999,3001,.60077182E-4,.322E-5,0
PISAT,2016-059B,2026-07-02T11:16:40.499616,14.69011061,.00296474,97.8182,183.2661,153.9873,206.2831,0,U,41784,999,52198,.19877741E-3,.1126E-4,0
FLYING LAPTOP,2017-042G,2026-07-02T15:35:26.233152,15.01246024,.00200023,97.4759,338.5939,72.5397,287.8012,0,U,42831,999,48877,.34303477E-3,.4368E-4,0
SALSAT,2020-068K,2026-07-02T06:06:00.402912,15.30013367,.00080377,97.8847,187.2381,243.7769,116.2645,0,U,46495,999,31766,.2998701E-3,.8637E-4,0
